{
  "type": "FeatureCollection",
  "name": "constraints_provisional",
  "features": [
    {
      "type": "Feature",
      "id": "CONSTRAINTS-001",
      "properties": {
        "id": "CONSTRAINTS-001",
        "layer": "SITE_BOUNDARY",
        "source_type": "agent_inferred_from_public_data",
        "confidence": "medium",
        "geometry_role": "provisional_constraint",
        "name_zh": "总体设计范围（provisional）",
        "official_boundary": false,
        "boundary_precision": "provisional_rough"
      },
      "geometry": {
        "type": "Polygon",
        "coordinates": [
          [
            [
              116.3407,
              39.939
            ],
            [
              116.3553,
              39.939
            ],
            [
              116.3553,
              39.965
            ],
            [
              116.3533,
              39.99
            ],
            [
              116.3553,
              40.0265
            ],
            [
              116.3427,
              40.0265
            ],
            [
              116.3417,
              40.006
            ],
            [
              116.3397,
              39.975
            ],
            [
              116.3407,
              39.939
            ]
          ]
        ]
      }
    },
    {
      "type": "Feature",
      "id": "CONSTRAINTS-002",
      "properties": {
        "id": "CONSTRAINTS-002",
        "layer": "KEY_AREA",
        "source_type": "agent_inferred_from_public_data",
        "confidence": "medium",
        "geometry_role": "provisional_constraint",
        "name_zh": "重点区域（provisional）",
        "official_boundary": false,
        "boundary_precision": "provisional_rough"
      },
      "geometry": {
        "type": "Polygon",
        "coordinates": [
          [
            [
              116.343,
              40.0075
            ],
            [
              116.354,
              40.0075
            ],
            [
              116.354,
              40.026
            ],
            [
              116.343,
              40.026
            ],
            [
              116.343,
              40.0075
            ]
          ]
        ]
      }
    },
    {
      "type": "Feature",
      "id": "CONSTRAINTS-003",
      "properties": {
        "id": "CONSTRAINTS-003",
        "layer": "KEY_AREA",
        "source_type": "agent_inferred_from_public_data",
        "confidence": "medium",
        "geometry_role": "provisional_constraint",
        "name_zh": "重点区域（provisional）",
        "official_boundary": false,
        "boundary_precision": "provisional_rough"
      },
      "geometry": {
        "type": "Polygon",
        "coordinates": [
          [
            [
              116.342,
              39.9835
            ],
            [
              116.353,
              39.9835
            ],
            [
              116.353,
              39.9935
            ],
            [
              116.342,
              39.9935
            ],
            [
              116.342,
              39.9835
            ]
          ]
        ]
      }
    },
    {
      "type": "Feature",
      "id": "CONSTRAINTS-004",
      "properties": {
        "id": "CONSTRAINTS-004",
        "layer": "KEY_AREA",
        "source_type": "agent_inferred_from_public_data",
        "confidence": "medium",
        "geometry_role": "provisional_constraint",
        "name_zh": "重点区域（provisional）",
        "official_boundary": false,
        "boundary_precision": "provisional_rough"
      },
      "geometry": {
        "type": "Polygon",
        "coordinates": [
          [
            [
              116.342,
              39.944
            ],
            [
              116.355,
              39.944
            ],
            [
              116.355,
              39.94984
            ],
            [
              116.342,
              39.94984
            ],
            [
              116.342,
              39.944
            ]
          ]
        ]
      }
    },
    {
      "type": "Feature",
      "id": "CONSTRAINTS-005",
      "properties": {
        "id": "CONSTRAINTS-005",
        "layer": "EXISTING_RAIL",
        "source_type": "agent_inferred_from_public_data",
        "confidence": "low",
        "geometry_role": "analysis_helper",
        "name_zh": "京张铁路遗址参考主轴（示意）",
        "usage_note": "基于公开叙事的示意线，仅作设计讨论；不代表铁路线位或遗址范围。"
      },
      "geometry": {
        "type": "LineString",
        "coordinates": [
          [
            116.3485,
            39.9469
          ],
          [
            116.3475,
            39.9885
          ],
          [
            116.3485,
            40.0168
          ]
        ]
      }
    },
    {
      "type": "Feature",
      "id": "CONSTRAINTS-006",
      "properties": {
        "id": "CONSTRAINTS-006",
        "layer": "REGULATORY_CONTROL",
        "source_type": "agent_inferred_from_public_data",
        "confidence": "low",
        "geometry_role": "map_viewport",
        "name_zh": "研究视口 bbox",
        "usage_note": "仅用于地图视口与上下文提取，不是边界。"
      },
      "geometry": {
        "type": "Polygon",
        "coordinates": [
          [
            [
              116.3553,
              39.939
            ],
            [
              116.3553,
              40.0265
            ],
            [
              116.3397,
              40.0265
            ],
            [
              116.3397,
              39.939
            ],
            [
              116.3553,
              39.939
            ]
          ]
        ]
      }
    },
    {
      "type": "Feature",
      "id": "AIZONE-001",
      "properties": {
        "id": "AIZONE-001",
        "layer": "AI_SERVICE_ZONE",
        "source_type": "agent_generated_design",
        "confidence": "medium",
        "geometry_role": "design_proposal",
        "zone_type": "innovation_service",
        "name_zh": "AI 创新服务区"
      },
      "geometry": {
        "type": "Polygon",
        "coordinates": [
          [
            [
              116.343,
              40.0075
            ],
            [
              116.354,
              40.0075
            ],
            [
              116.354,
              40.026
            ],
            [
              116.343,
              40.026
            ],
            [
              116.343,
              40.0075
            ]
          ]
        ]
      }
    },
    {
      "type": "Feature",
      "id": "AIZONE-002",
      "properties": {
        "id": "AIZONE-002",
        "layer": "AI_SERVICE_ZONE",
        "source_type": "agent_generated_design",
        "confidence": "medium",
        "geometry_role": "design_proposal",
        "zone_type": "innovation_service",
        "name_zh": "AI 创新服务区"
      },
      "geometry": {
        "type": "Polygon",
        "coordinates": [
          [
            [
              116.342,
              39.9835
            ],
            [
              116.353,
              39.9835
            ],
            [
              116.353,
              39.9935
            ],
            [
              116.342,
              39.9935
            ],
            [
              116.342,
              39.9835
            ]
          ]
        ]
      }
    },
    {
      "type": "Feature",
      "id": "AIZONE-003",
      "properties": {
        "id": "AIZONE-003",
        "layer": "AI_SERVICE_ZONE",
        "source_type": "agent_generated_design",
        "confidence": "medium",
        "geometry_role": "design_proposal",
        "zone_type": "innovation_service",
        "name_zh": "AI 创新服务区"
      },
      "geometry": {
        "type": "Polygon",
        "coordinates": [
          [
            [
              116.342,
              39.944
            ],
            [
              116.355,
              39.944
            ],
            [
              116.355,
              39.94984
            ],
            [
              116.342,
              39.94984
            ],
            [
              116.342,
              39.944
            ]
          ]
        ]
      }
    },
    {
      "type": "Feature",
      "id": "NODE-001",
      "properties": {
        "id": "NODE-001",
        "layer": "SCENARIO_NODE",
        "source_type": "agent_generated_design",
        "confidence": "low",
        "geometry_role": "design_proposal",
        "node_type": "gateway",
        "name_zh": "零公里起点站"
      },
      "geometry": {
        "type": "Point",
        "coordinates": [
          116.349,
          39.9445
        ]
      }
    },
    {
      "type": "Feature",
      "id": "NODE-002",
      "properties": {
        "id": "NODE-002",
        "layer": "SCENARIO_NODE",
        "source_type": "agent_generated_design",
        "confidence": "low",
        "geometry_role": "design_proposal",
        "node_type": "open_source_hall",
        "name_zh": "开源发布厅"
      },
      "geometry": {
        "type": "Point",
        "coordinates": [
          116.3472,
          39.9882
        ]
      }
    },
    {
      "type": "Feature",
      "id": "NODE-003",
      "properties": {
        "id": "NODE-003",
        "layer": "SCENARIO_NODE",
        "source_type": "agent_generated_design",
        "confidence": "low",
        "geometry_role": "design_proposal",
        "node_type": "test_sandbox",
        "name_zh": "AI 测试沙盒"
      },
      "geometry": {
        "type": "Point",
        "coordinates": [
          116.3486,
          40.013
        ]
      }
    },
    {
      "type": "Feature",
      "id": "NODE-004",
      "properties": {
        "id": "NODE-004",
        "layer": "SCENARIO_NODE",
        "source_type": "agent_generated_design",
        "confidence": "low",
        "geometry_role": "design_proposal",
        "node_type": "showcase_hall",
        "name_zh": "国际路演客厅"
      },
      "geometry": {
        "type": "Point",
        "coordinates": [
          116.345,
          39.9482
        ]
      }
    },
    {
      "type": "Feature",
      "id": "NODE-005",
      "properties": {
        "id": "NODE-005",
        "layer": "SCENARIO_NODE",
        "source_type": "agent_generated_design",
        "confidence": "low",
        "geometry_role": "design_proposal",
        "node_type": "greenway_hub",
        "name_zh": "遗址公园慢行驿站"
      },
      "geometry": {
        "type": "Point",
        "coordinates": [
          116.3492,
          39.9755
        ]
      }
    },
    {
      "type": "Feature",
      "id": "NODE-006",
      "properties": {
        "id": "NODE-006",
        "layer": "SCENARIO_NODE",
        "source_type": "agent_generated_design",
        "confidence": "low",
        "geometry_role": "design_proposal",
        "node_type": "riverfront_lab",
        "name_zh": "清河创新界面"
      },
      "geometry": {
        "type": "Point",
        "coordinates": [
          116.348,
          40.021
        ]
      }
    },
    {
      "type": "Feature",
      "id": "NODE-007",
      "properties": {
        "id": "NODE-007",
        "layer": "SCENARIO_NODE",
        "source_type": "agent_generated_design",
        "confidence": "low",
        "geometry_role": "design_proposal",
        "node_type": "youth_plaza",
        "name_zh": "青年活力广场"
      },
      "geometry": {
        "type": "Point",
        "coordinates": [
          116.3448,
          39.993
        ]
      }
    },
    {
      "type": "Feature",
      "id": "NODE-008",
      "properties": {
        "id": "NODE-008",
        "layer": "SCENARIO_NODE",
        "source_type": "agent_generated_design",
        "confidence": "low",
        "geometry_role": "design_proposal",
        "node_type": "event_start",
        "name_zh": "全球 AI 活动周起点"
      },
      "geometry": {
        "type": "Point",
        "coordinates": [
          116.3528,
          39.947
        ]
      }
    }
  ]
}