{
  "type": "FeatureCollection",
  "name": "green_space_conceptual",
  "features": [
    {
      "type": "Feature",
      "id": "GREEN-001",
      "properties": {
        "id": "GREEN-001",
        "layer": "GREEN_SPACE",
        "source_type": "agent_generated_design",
        "confidence": "medium",
        "geometry_role": "design_proposal",
        "green_type": "park",
        "name_zh": "公园绿地"
      },
      "geometry": {
        "type": "Polygon",
        "coordinates": [
          [
            [
              116.3404299382716,
              39.94872222222222
            ],
            [
              116.341,
              39.94872222222222
            ],
            [
              116.341,
              39.94386111111111
            ],
            [
              116.3405649691358,
              39.94386111111111
            ],
            [
              116.3404299382716,
              39.94872222222222
            ]
          ]
        ]
      }
    },
    {
      "type": "Feature",
      "id": "GREEN-002",
      "properties": {
        "id": "GREEN-002",
        "layer": "GREEN_SPACE",
        "source_type": "agent_generated_design",
        "confidence": "medium",
        "geometry_role": "design_proposal",
        "green_type": "protection",
        "name_zh": "防护绿地"
      },
      "geometry": {
        "type": "Polygon",
        "coordinates": [
          [
            [
              116.3527,
              39.94872222222222
            ],
            [
              116.3514,
              39.94872222222222
            ],
            [
              116.3501,
              39.94872222222222
            ],
            [
              116.3488,
              39.94872222222222
            ],
            [
              116.3475,
              39.94872222222222
            ],
            [
              116.3462,
              39.94872222222222
            ],
            [
              116.3449,
              39.94872222222222
            ],
            [
              116.3436,
              39.94872222222222
            ],
            [
              116.3436,
              39.953583333333334
            ],
            [
              116.3449,
              39.953583333333334
            ],
            [
              116.3462,
              39.953583333333334
            ],
            [
              116.3475,
              39.953583333333334
            ],
            [
              116.3488,
              39.953583333333334
            ],
            [
              116.3501,
              39.953583333333334
            ],
            [
              116.3514,
              39.953583333333334
            ],
            [
              116.3527,
              39.953583333333334
            ],
            [
              116.3527,
              39.94872222222222
            ]
          ]
        ]
      }
    },
    {
      "type": "Feature",
      "id": "GREEN-003",
      "properties": {
        "id": "GREEN-003",
        "layer": "GREEN_SPACE",
        "source_type": "agent_generated_design",
        "confidence": "medium",
        "geometry_role": "design_proposal",
        "green_type": "park",
        "name_zh": "公园绿地"
      },
      "geometry": {
        "type": "Polygon",
        "coordinates": [
          [
            [
              116.3423,
              39.958444444444446
            ],
            [
              116.341,
              39.958444444444446
            ],
            [
              116.341,
              39.96330555555556
            ],
            [
              116.3423,
              39.96330555555556
            ],
            [
              116.3423,
              39.958444444444446
            ]
          ]
        ]
      }
    },
    {
      "type": "Feature",
      "id": "GREEN-004",
      "properties": {
        "id": "GREEN-004",
        "layer": "GREEN_SPACE",
        "source_type": "agent_generated_design",
        "confidence": "medium",
        "geometry_role": "design_proposal",
        "green_type": "protection",
        "name_zh": "防护绿地"
      },
      "geometry": {
        "type": "Polygon",
        "coordinates": [
          [
            [
              116.3462,
              39.96816666666667
            ],
            [
              116.3475,
              39.96816666666667
            ],
            [
              116.3488,
              39.96816666666667
            ],
            [
              116.3501,
              39.96816666666667
            ],
            [
              116.3514,
              39.96816666666667
            ],
            [
              116.3527,
              39.96816666666667
            ],
            [
              116.3527,
              39.96330555555556
            ],
            [
              116.3527,
              39.958444444444446
            ],
            [
              116.3514,
              39.958444444444446
            ],
            [
              116.3501,
              39.958444444444446
            ],
            [
              116.3488,
              39.958444444444446
            ],
            [
              116.3475,
              39.958444444444446
            ],
            [
              116.3462,
              39.958444444444446
            ],
            [
              116.3449,
              39.958444444444446
            ],
            [
              116.3436,
              39.958444444444446
            ],
            [
              116.3436,
              39.96330555555556
            ],
            [
              116.3436,
              39.96816666666667
            ],
            [
              116.3449,
              39.96816666666667
            ],
            [
              116.3462,
              39.96816666666667
            ]
          ]
        ]
      }
    },
    {
      "type": "Feature",
      "id": "GREEN-005",
      "properties": {
        "id": "GREEN-005",
        "layer": "GREEN_SPACE",
        "source_type": "agent_generated_design",
        "confidence": "medium",
        "geometry_role": "design_proposal",
        "green_type": "park",
        "name_zh": "公园绿地"
      },
      "geometry": {
        "type": "Polygon",
        "coordinates": [
          [
            [
              116.3397,
              39.975
            ],
            [
              116.33988637992832,
              39.97788888888889
            ],
            [
              116.341,
              39.97788888888889
            ],
            [
              116.341,
              39.97302777777778
            ],
            [
              116.33975478395061,
              39.97302777777778
            ],
            [
              116.3397,
              39.975
            ]
          ]
        ]
      }
    },
    {
      "type": "Feature",
      "id": "GREEN-006",
      "properties": {
        "id": "GREEN-006",
        "layer": "GREEN_SPACE",
        "source_type": "agent_generated_design",
        "confidence": "medium",
        "geometry_role": "design_proposal",
        "green_type": "protection",
        "name_zh": "防护绿地"
      },
      "geometry": {
        "type": "Polygon",
        "coordinates": [
          [
            [
              116.3423,
              39.97302777777778
            ],
            [
              116.3423,
              39.97788888888889
            ],
            [
              116.3436,
              39.97788888888889
            ],
            [
              116.3436,
              39.982749999999996
            ],
            [
              116.3449,
              39.982749999999996
            ],
            [
              116.3462,
              39.982749999999996
            ],
            [
              116.3475,
              39.982749999999996
            ],
            [
              116.3488,
              39.982749999999996
            ],
            [
              116.3501,
              39.982749999999996
            ],
            [
              116.3514,
              39.982749999999996
            ],
            [
              116.3527,
              39.982749999999996
            ],
            [
              116.3527,
              39.97788888888889
            ],
            [
              116.354,
              39.97788888888889
            ],
            [
              116.354,
              39.97302777777778
            ],
            [
              116.3527,
              39.97302777777778
            ],
            [
              116.3514,
              39.97302777777778
            ],
            [
              116.3501,
              39.97302777777778
            ],
            [
              116.3488,
              39.97302777777778
            ],
            [
              116.3475,
              39.97302777777778
            ],
            [
              116.3462,
              39.97302777777778
            ],
            [
              116.3449,
              39.97302777777778
            ],
            [
              116.3436,
              39.97302777777778
            ],
            [
              116.3423,
              39.97302777777778
            ]
          ]
        ]
      }
    },
    {
      "type": "Feature",
      "id": "GREEN-007",
      "properties": {
        "id": "GREEN-007",
        "layer": "GREEN_SPACE",
        "source_type": "agent_generated_design",
        "confidence": "medium",
        "geometry_role": "design_proposal",
        "green_type": "park",
        "name_zh": "公园绿地"
      },
      "geometry": {
        "type": "Polygon",
        "coordinates": [
          [
            [
              116.341,
              39.98761111111111
            ],
            [
              116.341,
              39.99247222222222
            ],
            [
              116.3423,
              39.99247222222222
            ],
            [
              116.3423,
              39.98761111111111
            ],
            [
              116.341,
              39.98761111111111
            ]
          ]
        ]
      }
    },
    {
      "type": "Feature",
      "id": "GREEN-008",
      "properties": {
        "id": "GREEN-008",
        "layer": "GREEN_SPACE",
        "source_type": "agent_generated_design",
        "confidence": "medium",
        "geometry_role": "design_proposal",
        "green_type": "protection",
        "name_zh": "防护绿地"
      },
      "geometry": {
        "type": "Polygon",
        "coordinates": [
          [
            [
              116.3423,
              40.00219444444444
            ],
            [
              116.3423,
              40.00705555555555
            ],
            [
              116.3436,
              40.00705555555555
            ],
            [
              116.3449,
              40.00705555555555
            ],
            [
              116.3462,
              40.00705555555555
            ],
            [
              116.3475,
              40.00705555555555
            ],
            [
              116.3475,
              40.011916666666664
            ],
            [
              116.3488,
              40.011916666666664
            ],
            [
              116.3488,
              40.00705555555555
            ],
            [
              116.3501,
              40.00705555555555
            ],
            [
              116.3514,
              40.00705555555555
            ],
            [
              116.3527,
              40.00705555555555
            ],
            [
              116.354,
              40.00705555555555
            ],
            [
              116.354,
              40.002774999999936
            ],
            [
              116.35396818873669,
              40.00219444444444
            ],
            [
              116.3527,
              40.00219444444444
            ],
            [
              116.3514,
              40.00219444444444
            ],
            [
              116.3501,
              40.00219444444444
            ],
            [
              116.3488,
              40.00219444444444
            ],
            [
              116.3475,
              40.00219444444444
            ],
            [
              116.3462,
              40.00219444444444
            ],
            [
              116.3449,
              40.00219444444444
            ],
            [
              116.3436,
              40.00219444444444
            ],
            [
              116.3423,
              40.00219444444444
            ]
          ]
        ]
      }
    },
    {
      "type": "Feature",
      "id": "GREEN-009",
      "properties": {
        "id": "GREEN-009",
        "layer": "GREEN_SPACE",
        "source_type": "agent_generated_design",
        "confidence": "medium",
        "geometry_role": "design_proposal",
        "green_type": "park",
        "name_zh": "公园绿地"
      },
      "geometry": {
        "type": "Polygon",
        "coordinates": [
          [
            [
              116.3423,
              40.01829999999994
            ],
            [
              116.3423,
              40.016777777777776
            ],
            [
              116.34222574525745,
              40.016777777777776
            ],
            [
              116.3423,
              40.01829999999994
            ]
          ]
        ]
      }
    },
    {
      "type": "Feature",
      "id": "GREEN-010",
      "properties": {
        "id": "GREEN-010",
        "layer": "GREEN_SPACE",
        "source_type": "agent_generated_design",
        "confidence": "medium",
        "geometry_role": "design_proposal",
        "green_type": "protection",
        "name_zh": "防护绿地"
      },
      "geometry": {
        "type": "Polygon",
        "coordinates": [
          [
            [
              116.3449,
              40.016777777777776
            ],
            [
              116.3436,
              40.016777777777776
            ],
            [
              116.3436,
              40.02163888888889
            ],
            [
              116.3449,
              40.02163888888889
            ],
            [
              116.3449,
              40.016777777777776
            ]
          ]
        ]
      }
    },
    {
      "type": "Feature",
      "id": "GREEN-011",
      "properties": {
        "id": "GREEN-011",
        "layer": "GREEN_SPACE",
        "source_type": "agent_generated_design",
        "confidence": "medium",
        "geometry_role": "design_proposal",
        "green_type": "park",
        "name_zh": "公园绿地"
      },
      "geometry": {
        "type": "Polygon",
        "coordinates": [
          [
            [
              116.3449,
              40.0265
            ],
            [
              116.3462,
              40.0265
            ],
            [
              116.3462,
              40.02163888888889
            ],
            [
              116.3449,
              40.02163888888889
            ],
            [
              116.3449,
              40.0265
            ]
          ]
        ]
      }
    },
    {
      "type": "Feature",
      "id": "GREEN-012",
      "properties": {
        "id": "GREEN-012",
        "layer": "GREEN_SPACE",
        "source_type": "agent_generated_design",
        "confidence": "medium",
        "geometry_role": "design_proposal",
        "green_type": "protection",
        "name_zh": "防护绿地"
      },
      "geometry": {
        "type": "Polygon",
        "coordinates": [
          [
            [
              116.3553,
              39.958444444444446
            ],
            [
              116.354,
              39.958444444444446
            ],
            [
              116.354,
              39.96330555555556
            ],
            [
              116.3553,
              39.96330555555556
            ],
            [
              116.3553,
              39.958444444444446
            ]
          ]
        ]
      }
    },
    {
      "type": "Feature",
      "id": "GREEN-013",
      "properties": {
        "id": "GREEN-013",
        "layer": "GREEN_SPACE",
        "source_type": "agent_generated_design",
        "confidence": "medium",
        "geometry_role": "design_proposal",
        "green_type": "park",
        "name_zh": "公园绿地"
      },
      "geometry": {
        "type": "Polygon",
        "coordinates": [
          [
            [
              116.3475,
              39.99733333333333
            ],
            [
              116.3488,
              39.99733333333333
            ],
            [
              116.3501,
              39.99733333333333
            ],
            [
              116.3514,
              39.99733333333333
            ],
            [
              116.3527,
              39.99733333333333
            ],
            [
              116.3527,
              39.99247222222222
            ],
            [
              116.3514,
              39.99247222222222
            ],
            [
              116.3501,
              39.99247222222222
            ],
            [
              116.3488,
              39.99247222222222
            ],
            [
              116.3475,
              39.99247222222222
            ],
            [
              116.3462,
              39.99247222222222
            ],
            [
              116.3449,
              39.99247222222222
            ],
            [
              116.3436,
              39.99247222222222
            ],
            [
              116.3436,
              39.99733333333333
            ],
            [
              116.3449,
              39.99733333333333
            ],
            [
              116.3462,
              39.99733333333333
            ],
            [
              116.3475,
              39.99733333333333
            ]
          ]
        ]
      }
    },
    {
      "type": "Feature",
      "id": "GREEN-014",
      "properties": {
        "id": "GREEN-014",
        "layer": "GREEN_SPACE",
        "source_type": "agent_generated_design",
        "confidence": "medium",
        "geometry_role": "design_proposal",
        "green_type": "protection",
        "name_zh": "防护绿地"
      },
      "geometry": {
        "type": "Polygon",
        "coordinates": [
          [
            [
              116.3501,
              40.011916666666664
            ],
            [
              116.3488,
              40.011916666666664
            ],
            [
              116.3488,
              40.016777777777776
            ],
            [
              116.3501,
              40.016777777777776
            ],
            [
              116.3501,
              40.011916666666664
            ]
          ]
        ]
      }
    },
    {
      "type": "Feature",
      "id": "GREEN-015",
      "properties": {
        "id": "GREEN-015",
        "layer": "GREEN_SPACE",
        "source_type": "agent_generated_design",
        "confidence": "medium",
        "geometry_role": "design_proposal",
        "green_type": "park",
        "name_zh": "公园绿地"
      },
      "geometry": {
        "type": "Polygon",
        "coordinates": [
          [
            [
              116.3514,
              40.02163888888889
            ],
            [
              116.3514,
              40.016777777777776
            ],
            [
              116.3501,
              40.016777777777776
            ],
            [
              116.3501,
              40.02163888888889
            ],
            [
              116.3514,
              40.02163888888889
            ]
          ]
        ]
      }
    },
    {
      "type": "Feature",
      "id": "GREEN-016",
      "properties": {
        "id": "GREEN-016",
        "layer": "GREEN_SPACE",
        "source_type": "agent_generated_design",
        "confidence": "medium",
        "geometry_role": "design_proposal",
        "green_type": "protection",
        "name_zh": "防护绿地"
      },
      "geometry": {
        "type": "Polygon",
        "coordinates": [
          [
            [
              116.354,
              40.02163888888889
            ],
            [
              116.35503363774734,
              40.02163888888889
            ],
            [
              116.35476727549468,
              40.016777777777776
            ],
            [
              116.354,
              40.016777777777776
            ],
            [
              116.354,
              40.02163888888889
            ]
          ]
        ]
      }
    },
    {
      "type": "Feature",
      "id": "GREEN-017",
      "properties": {
        "id": "GREEN-017",
        "layer": "GREEN_SPACE",
        "source_type": "agent_generated_design",
        "confidence": "medium",
        "geometry_role": "design_proposal",
        "green_type": "park",
        "name_zh": "公园绿地"
      },
      "geometry": {
        "type": "Polygon",
        "coordinates": [
          [
            [
              116.3527,
              40.0265
            ],
            [
              116.3527,
              40.02163888888889
            ],
            [
              116.3514,
              40.02163888888889
            ],
            [
              116.3514,
              40.0265
            ],
            [
              116.3527,
              40.0265
            ]
          ]
        ]
      }
    }
  ]
}