{
  "type": "FeatureCollection",
  "name": "land_use_conceptual",
  "features": [
    {
      "type": "Feature",
      "id": "LU-001",
      "properties": {
        "id": "LU-001",
        "layer": "LAND_USE",
        "source_type": "agent_generated_design",
        "confidence": "medium",
        "geometry_role": "design_proposal",
        "land_use_code": "05",
        "land_use_label_zh": "商业服务业用地",
        "name_zh": "商业服务业用地",
        "usage_note": "概念性用地分区，基于 provisional 边界生成；不构成法定用地分类结论。"
      },
      "geometry": {
        "type": "MultiPolygon",
        "coordinates": [
          [
            [
              [
                116.3449,
                39.94386111111111
              ],
              [
                116.3449,
                39.94872222222222
              ],
              [
                116.3462,
                39.94872222222222
              ],
              [
                116.3475,
                39.94872222222222
              ],
              [
                116.3475,
                39.94386111111111
              ],
              [
                116.3462,
                39.94386111111111
              ],
              [
                116.3449,
                39.94386111111111
              ]
            ]
          ],
          [
            [
              [
                116.341,
                39.953583333333334
              ],
              [
                116.341,
                39.94872222222222
              ],
              [
                116.3404299382716,
                39.94872222222222
              ],
              [
                116.3402949074074,
                39.953583333333334
              ],
              [
                116.341,
                39.953583333333334
              ]
            ]
          ],
          [
            [
              [
                116.3423,
                39.94872222222222
              ],
              [
                116.3423,
                39.953583333333334
              ],
              [
                116.3436,
                39.953583333333334
              ],
              [
                116.3436,
                39.94872222222222
              ],
              [
                116.3423,
                39.94872222222222
              ]
            ]
          ],
          [
            [
              [
                116.341,
                39.96330555555556
              ],
              [
                116.341,
                39.96816666666667
              ],
              [
                116.3423,
                39.96816666666667
              ],
              [
                116.3423,
                39.96330555555556
              ],
              [
                116.341,
                39.96330555555556
              ]
            ]
          ],
          [
            [
              [
                116.341,
                39.982749999999996
              ],
              [
                116.341,
                39.97788888888889
              ],
              [
                116.33988637992832,
                39.97788888888889
              ],
              [
                116.3402,
                39.982749999999996
              ],
              [
                116.341,
                39.982749999999996
              ]
            ]
          ],
          [
            [
              [
                116.3423,
                39.97788888888889
              ],
              [
                116.3423,
                39.982749999999996
              ],
              [
                116.3436,
                39.982749999999996
              ],
              [
                116.3436,
                39.97788888888889
              ],
              [
                116.3423,
                39.97788888888889
              ]
            ]
          ],
          [
            [
              [
                116.34114086021505,
                39.99733333333333
              ],
              [
                116.3423,
                39.99733333333333
              ],
              [
                116.3423,
                39.99247222222222
              ],
              [
                116.341,
                39.99247222222222
              ],
              [
                116.341,
                39.99514999999991
              ],
              [
                116.34114086021505,
                39.99733333333333
              ]
            ]
          ],
          [
            [
              [
                116.3423,
                40.00705555555555
              ],
              [
                116.3423,
                40.011916666666664
              ],
              [
                116.3436,
                40.011916666666664
              ],
              [
                116.3436,
                40.00705555555555
              ],
              [
                116.3423,
                40.00705555555555
              ]
            ]
          ],
          [
            [
              [
                116.3527,
                39.94386111111111
              ],
              [
                116.3514,
                39.94386111111111
              ],
              [
                116.3514,
                39.94872222222222
              ],
              [
                116.3527,
                39.94872222222222
              ],
              [
                116.3527,
                39.953583333333334
              ],
              [
                116.354,
                39.953583333333334
              ],
              [
                116.354,
                39.94872222222222
              ],
              [
                116.354,
                39.94386111111111
              ],
              [
                116.3527,
                39.94386111111111
              ]
            ]
          ],
          [
            [
              [
                116.3553,
                39.965
              ],
              [
                116.3553,
                39.96330555555556
              ],
              [
                116.354,
                39.96330555555556
              ],
              [
                116.354,
                39.96816666666667
              ],
              [
                116.35504666666667,
                39.96816666666667
              ],
              [
                116.3553,
                39.965
              ]
            ]
          ],
          [
            [
              [
                116.354,
                39.981250000000045
              ],
              [
                116.354,
                39.97788888888889
              ],
              [
                116.3527,
                39.97788888888889
              ],
              [
                116.3527,
                39.982749999999996
              ],
              [
                116.35388,
                39.982749999999996
              ],
              [
                116.354,
                39.981250000000045
              ]
            ]
          ],
          [
            [
              [
                116.3553,
                40.0265
              ],
              [
                116.35503363774734,
                40.02163888888889
              ],
              [
                116.354,
                40.02163888888889
              ],
              [
                116.354,
                40.0265
              ],
              [
                116.3553,
                40.0265
              ]
            ]
          ]
        ]
      }
    },
    {
      "type": "Feature",
      "id": "LU-002",
      "properties": {
        "id": "LU-002",
        "layer": "LAND_USE",
        "source_type": "agent_generated_design",
        "confidence": "medium",
        "geometry_role": "design_proposal",
        "land_use_code": "0701",
        "land_use_label_zh": "城镇住宅用地",
        "name_zh": "城镇住宅用地",
        "usage_note": "概念性用地分区，基于 provisional 边界生成；不构成法定用地分类结论。"
      },
      "geometry": {
        "type": "MultiPolygon",
        "coordinates": [
          [
            [
              [
                116.3423,
                39.94386111111111
              ],
              [
                116.3423,
                39.939
              ],
              [
                116.341,
                39.939
              ],
              [
                116.3407,
                39.939
              ],
              [
                116.3405649691358,
                39.94386111111111
              ],
              [
                116.341,
                39.94386111111111
              ],
              [
                116.3423,
                39.94386111111111
              ]
            ]
          ],
          [
            [
              [
                116.3462,
                39.939
              ],
              [
                116.3449,
                39.939
              ],
              [
                116.3449,
                39.94386111111111
              ],
              [
                116.3462,
                39.94386111111111
              ],
              [
                116.3475,
                39.94386111111111
              ],
              [
                116.3475,
                39.939
              ],
              [
                116.3462,
                39.939
              ]
            ]
          ],
          [
            [
              [
                116.341,
                39.953583333333334
              ],
              [
                116.3402949074074,
                39.953583333333334
              ],
              [
                116.34015987654321,
                39.958444444444446
              ],
              [
                116.341,
                39.958444444444446
              ],
              [
                116.341,
                39.953583333333334
              ]
            ]
          ],
          [
            [
              [
                116.3436,
                39.96816666666667
              ],
              [
                116.3436,
                39.96330555555556
              ],
              [
                116.3423,
                39.96330555555556
              ],
              [
                116.3423,
                39.96816666666667
              ],
              [
                116.3423,
                39.97302777777778
              ],
              [
                116.3436,
                39.97302777777778
              ],
              [
                116.3436,
                39.96816666666667
              ]
            ]
          ],
          [
            [
              [
                116.3423,
                39.982749999999996
              ],
              [
                116.3423,
                39.97788888888889
              ],
              [
                116.341,
                39.97788888888889
              ],
              [
                116.341,
                39.982749999999996
              ],
              [
                116.341,
                39.98761111111111
              ],
              [
                116.3423,
                39.98761111111111
              ],
              [
                116.3423,
                39.982749999999996
              ]
            ]
          ],
          [
            [
              [
                116.341,
                39.99514999999991
              ],
              [
                116.341,
                39.99247222222222
              ],
              [
                116.34082724014337,
                39.99247222222222
              ],
              [
                116.341,
                39.99514999999991
              ]
            ]
          ],
          [
            [
              [
                116.3423,
                40.00219444444444
              ],
              [
                116.3423,
                39.99733333333333
              ],
              [
                116.34114086021505,
                39.99733333333333
              ],
              [
                116.34145448028674,
                40.00219444444444
              ],
              [
                116.3423,
                40.00219444444444
              ]
            ]
          ],
          [
            [
              [
                116.3514,
                39.94386111111111
              ],
              [
                116.3527,
                39.94386111111111
              ],
              [
                116.3527,
                39.939
              ],
              [
                116.3514,
                39.939
              ],
              [
                116.3501,
                39.939
              ],
              [
                116.3501,
                39.94386111111111
              ],
              [
                116.3514,
                39.94386111111111
              ]
            ]
          ],
          [
            [
              [
                116.3553,
                39.953583333333334
              ],
              [
                116.3553,
                39.94872222222222
              ],
              [
                116.354,
                39.94872222222222
              ],
              [
                116.354,
                39.953583333333334
              ],
              [
                116.354,
                39.958444444444446
              ],
              [
                116.3553,
                39.958444444444446
              ],
              [
                116.3553,
                39.953583333333334
              ]
            ]
          ],
          [
            [
              [
                116.35465777777777,
                39.97302777777778
              ],
              [
                116.35504666666667,
                39.96816666666667
              ],
              [
                116.354,
                39.96816666666667
              ],
              [
                116.354,
                39.96330555555556
              ],
              [
                116.3527,
                39.96330555555556
              ],
              [
                116.3527,
                39.96816666666667
              ],
              [
                116.3527,
                39.97302777777778
              ],
              [
                116.354,
                39.97302777777778
              ],
              [
                116.35465777777777,
                39.97302777777778
              ]
            ]
          ],
          [
            [
              [
                116.3527,
                39.982749999999996
              ],
              [
                116.3527,
                39.98761111111111
              ],
              [
                116.35349111111111,
                39.98761111111111
              ],
              [
                116.35388,
                39.982749999999996
              ],
              [
                116.3527,
                39.982749999999996
              ]
            ]
          ],
          [
            [
              [
                116.35423455098935,
                40.00705555555555
              ],
              [
                116.354,
                40.00705555555555
              ],
              [
                116.354,
                40.011916666666664
              ],
              [
                116.354,
                40.016777777777776
              ],
              [
                116.35476727549468,
                40.016777777777776
              ],
              [
                116.354500913242,
                40.011916666666664
              ],
              [
                116.35423455098935,
                40.00705555555555
              ]
            ]
          ]
        ]
      }
    },
    {
      "type": "Feature",
      "id": "LU-003",
      "properties": {
        "id": "LU-003",
        "layer": "LAND_USE",
        "source_type": "agent_generated_design",
        "confidence": "medium",
        "geometry_role": "design_proposal",
        "land_use_code": "0702",
        "land_use_label_zh": "城镇社区服务设施用地",
        "name_zh": "城镇社区服务设施用地",
        "usage_note": "概念性用地分区，基于 provisional 边界生成；不构成法定用地分类结论。"
      },
      "geometry": {
        "type": "MultiPolygon",
        "coordinates": [
          [
            [
              [
                116.3423,
                39.94872222222222
              ],
              [
                116.3423,
                39.94386111111111
              ],
              [
                116.341,
                39.94386111111111
              ],
              [
                116.341,
                39.94872222222222
              ],
              [
                116.341,
                39.953583333333334
              ],
              [
                116.3423,
                39.953583333333334
              ],
              [
                116.3423,
                39.94872222222222
              ]
            ]
          ],
          [
            [
              [
                116.33988981481481,
                39.96816666666667
              ],
              [
                116.341,
                39.96816666666667
              ],
              [
                116.341,
                39.96330555555556
              ],
              [
                116.341,
                39.958444444444446
              ],
              [
                116.34015987654321,
                39.958444444444446
              ],
              [
                116.34002484567901,
                39.96330555555556
              ],
              [
                116.33988981481481,
                39.96816666666667
              ]
            ]
          ],
          [
            [
              [
                116.3462,
                39.98761111111111
              ],
              [
                116.3475,
                39.98761111111111
              ],
              [
                116.3488,
                39.98761111111111
              ],
              [
                116.3501,
                39.98761111111111
              ],
              [
                116.3514,
                39.98761111111111
              ],
              [
                116.3527,
                39.98761111111111
              ],
              [
                116.3527,
                39.982749999999996
              ],
              [
                116.3514,
                39.982749999999996
              ],
              [
                116.3501,
                39.982749999999996
              ],
              [
                116.3488,
                39.982749999999996
              ],
              [
                116.3475,
                39.982749999999996
              ],
              [
                116.3462,
                39.982749999999996
              ],
              [
                116.3449,
                39.982749999999996
              ],
              [
                116.3436,
                39.982749999999996
              ],
              [
                116.3423,
                39.982749999999996
              ],
              [
                116.3423,
                39.98761111111111
              ],
              [
                116.3436,
                39.98761111111111
              ],
              [
                116.3449,
                39.98761111111111
              ],
              [
                116.3462,
                39.98761111111111
              ]
            ]
          ],
          [
            [
              [
                116.3423,
                39.99733333333333
              ],
              [
                116.3436,
                39.99733333333333
              ],
              [
                116.3436,
                39.99247222222222
              ],
              [
                116.3423,
                39.99247222222222
              ],
              [
                116.3423,
                39.99733333333333
              ]
            ]
          ],
          [
            [
              [
                116.3423,
                40.00219444444444
              ],
              [
                116.34145448028674,
                40.00219444444444
              ],
              [
                116.3417,
                40.006
              ],
              [
                116.34175149051491,
                40.00705555555555
              ],
              [
                116.34198861788617,
                40.011916666666664
              ],
              [
                116.3423,
                40.011916666666664
              ],
              [
                116.3423,
                40.00705555555555
              ],
              [
                116.3423,
                40.00219444444444
              ]
            ]
          ],
          [
            [
              [
                116.354,
                39.97788888888889
              ],
              [
                116.354,
                39.981250000000045
              ],
              [
                116.3542688888889,
                39.97788888888889
              ],
              [
                116.35465777777777,
                39.97302777777778
              ],
              [
                116.354,
                39.97302777777778
              ],
              [
                116.354,
                39.97788888888889
              ]
            ]
          ],
          [
            [
              [
                116.3533,
                39.99
              ],
              [
                116.35349111111111,
                39.98761111111111
              ],
              [
                116.3527,
                39.98761111111111
              ],
              [
                116.3527,
                39.99247222222222
              ],
              [
                116.3527,
                39.99733333333333
              ],
              [
                116.35370182648403,
                39.99733333333333
              ],
              [
                116.35343546423135,
                39.99247222222222
              ],
              [
                116.3533,
                39.99
              ]
            ]
          ]
        ]
      }
    },
    {
      "type": "Feature",
      "id": "LU-004",
      "properties": {
        "id": "LU-004",
        "layer": "LAND_USE",
        "source_type": "agent_generated_design",
        "confidence": "medium",
        "geometry_role": "design_proposal",
        "land_use_code": "0802",
        "land_use_label_zh": "科研用地",
        "name_zh": "科研用地",
        "usage_note": "概念性用地分区，基于 provisional 边界生成；不构成法定用地分类结论。"
      },
      "geometry": {
        "type": "MultiPolygon",
        "coordinates": [
          [
            [
              [
                116.3423,
                39.94386111111111
              ],
              [
                116.3423,
                39.94872222222222
              ],
              [
                116.3436,
                39.94872222222222
              ],
              [
                116.3436,
                39.94386111111111
              ],
              [
                116.3423,
                39.94386111111111
              ]
            ]
          ],
          [
            [
              [
                116.3436,
                40.016777777777776
              ],
              [
                116.3449,
                40.016777777777776
              ],
              [
                116.3449,
                40.02163888888889
              ],
              [
                116.3462,
                40.02163888888889
              ],
              [
                116.3462,
                40.0265
              ],
              [
                116.3475,
                40.0265
              ],
              [
                116.3488,
                40.0265
              ],
              [
                116.3501,
                40.0265
              ],
              [
                116.3514,
                40.0265
              ],
              [
                116.3514,
                40.02163888888889
              ],
              [
                116.3501,
                40.02163888888889
              ],
              [
                116.3501,
                40.016777777777776
              ],
              [
                116.3488,
                40.016777777777776
              ],
              [
                116.3488,
                40.011916666666664
              ],
              [
                116.3475,
                40.011916666666664
              ],
              [
                116.3475,
                40.00705555555555
              ],
              [
                116.3462,
                40.00705555555555
              ],
              [
                116.3449,
                40.00705555555555
              ],
              [
                116.3436,
                40.00705555555555
              ],
              [
                116.3436,
                40.011916666666664
              ],
              [
                116.3436,
                40.016777777777776
              ]
            ]
          ],
          [
            [
              [
                116.3488,
                39.94386111111111
              ],
              [
                116.3488,
                39.94872222222222
              ],
              [
                116.3501,
                39.94872222222222
              ],
              [
                116.3501,
                39.94386111111111
              ],
              [
                116.3488,
                39.94386111111111
              ]
            ]
          ],
          [
            [
              [
                116.3488,
                40.00705555555555
              ],
              [
                116.3488,
                40.011916666666664
              ],
              [
                116.3501,
                40.011916666666664
              ],
              [
                116.3501,
                40.00705555555555
              ],
              [
                116.3488,
                40.00705555555555
              ]
            ]
          ],
          [
            [
              [
                116.3501,
                40.016777777777776
              ],
              [
                116.3514,
                40.016777777777776
              ],
              [
                116.3514,
                40.011916666666664
              ],
              [
                116.3501,
                40.011916666666664
              ],
              [
                116.3501,
                40.016777777777776
              ]
            ]
          ],
          [
            [
              [
                116.3514,
                40.02163888888889
              ],
              [
                116.3527,
                40.02163888888889
              ],
              [
                116.3527,
                40.016777777777776
              ],
              [
                116.3514,
                40.016777777777776
              ],
              [
                116.3514,
                40.02163888888889
              ]
            ]
          ],
          [
            [
              [
                116.3527,
                40.02163888888889
              ],
              [
                116.3527,
                40.0265
              ],
              [
                116.354,
                40.0265
              ],
              [
                116.354,
                40.02163888888889
              ],
              [
                116.3527,
                40.02163888888889
              ]
            ]
          ]
        ]
      }
    },
    {
      "type": "Feature",
      "id": "LU-005",
      "properties": {
        "id": "LU-005",
        "layer": "LAND_USE",
        "source_type": "agent_generated_design",
        "confidence": "medium",
        "geometry_role": "design_proposal",
        "land_use_code": "0803",
        "land_use_label_zh": "文化用地",
        "name_zh": "文化用地",
        "usage_note": "概念性用地分区，基于 provisional 边界生成；不构成法定用地分类结论。"
      },
      "geometry": {
        "type": "MultiPolygon",
        "coordinates": [
          [
            [
              [
                116.3488,
                39.94872222222222
              ],
              [
                116.3488,
                39.94386111111111
              ],
              [
                116.3475,
                39.94386111111111
              ],
              [
                116.3475,
                39.94872222222222
              ],
              [
                116.3488,
                39.94872222222222
              ]
            ]
          ],
          [
            [
              [
                116.3553,
                39.94872222222222
              ],
              [
                116.3553,
                39.94386111111111
              ],
              [
                116.354,
                39.94386111111111
              ],
              [
                116.354,
                39.94872222222222
              ],
              [
                116.3553,
                39.94872222222222
              ]
            ]
          ],
          [
            [
              [
                116.3514,
                40.00705555555555
              ],
              [
                116.3501,
                40.00705555555555
              ],
              [
                116.3501,
                40.011916666666664
              ],
              [
                116.3514,
                40.011916666666664
              ],
              [
                116.3514,
                40.00705555555555
              ]
            ]
          ],
          [
            [
              [
                116.354,
                40.00705555555555
              ],
              [
                116.3527,
                40.00705555555555
              ],
              [
                116.3527,
                40.011916666666664
              ],
              [
                116.354,
                40.011916666666664
              ],
              [
                116.354,
                40.00705555555555
              ]
            ]
          ],
          [
            [
              [
                116.3527,
                40.011916666666664
              ],
              [
                116.3514,
                40.011916666666664
              ],
              [
                116.3514,
                40.016777777777776
              ],
              [
                116.3527,
                40.016777777777776
              ],
              [
                116.3527,
                40.011916666666664
              ]
            ]
          ],
          [
            [
              [
                116.354,
                40.016777777777776
              ],
              [
                116.3527,
                40.016777777777776
              ],
              [
                116.3527,
                40.02163888888889
              ],
              [
                116.354,
                40.02163888888889
              ],
              [
                116.354,
                40.016777777777776
              ]
            ]
          ],
          [
            [
              [
                116.3449,
                40.0265
              ],
              [
                116.3449,
                40.02163888888889
              ],
              [
                116.3436,
                40.02163888888889
              ],
              [
                116.3436,
                40.0265
              ],
              [
                116.3449,
                40.0265
              ]
            ]
          ]
        ]
      }
    },
    {
      "type": "Feature",
      "id": "LU-006",
      "properties": {
        "id": "LU-006",
        "layer": "LAND_USE",
        "source_type": "agent_generated_design",
        "confidence": "medium",
        "geometry_role": "design_proposal",
        "land_use_code": "0804",
        "land_use_label_zh": "教育用地",
        "name_zh": "教育用地",
        "usage_note": "概念性用地分区，基于 provisional 边界生成；不构成法定用地分类结论。"
      },
      "geometry": {
        "type": "MultiPolygon",
        "coordinates": [
          [
            [
              [
                116.3436,
                39.958444444444446
              ],
              [
                116.3423,
                39.958444444444446
              ],
              [
                116.3423,
                39.96330555555556
              ],
              [
                116.3436,
                39.96330555555556
              ],
              [
                116.3436,
                39.958444444444446
              ]
            ]
          ],
          [
            [
              [
                116.341,
                39.97302777777778
              ],
              [
                116.341,
                39.97788888888889
              ],
              [
                116.3423,
                39.97788888888889
              ],
              [
                116.3423,
                39.97302777777778
              ],
              [
                116.341,
                39.97302777777778
              ]
            ]
          ],
          [
            [
              [
                116.341,
                39.99247222222222
              ],
              [
                116.341,
                39.98761111111111
              ],
              [
                116.34051362007168,
                39.98761111111111
              ],
              [
                116.34082724014337,
                39.99247222222222
              ],
              [
                116.341,
                39.99247222222222
              ]
            ]
          ],
          [
            [
              [
                116.3462,
                39.99247222222222
              ],
              [
                116.3475,
                39.99247222222222
              ],
              [
                116.3488,
                39.99247222222222
              ],
              [
                116.3501,
                39.99247222222222
              ],
              [
                116.3514,
                39.99247222222222
              ],
              [
                116.3527,
                39.99247222222222
              ],
              [
                116.3527,
                39.98761111111111
              ],
              [
                116.3514,
                39.98761111111111
              ],
              [
                116.3501,
                39.98761111111111
              ],
              [
                116.3488,
                39.98761111111111
              ],
              [
                116.3475,
                39.98761111111111
              ],
              [
                116.3462,
                39.98761111111111
              ],
              [
                116.3449,
                39.98761111111111
              ],
              [
                116.3436,
                39.98761111111111
              ],
              [
                116.3423,
                39.98761111111111
              ],
              [
                116.3423,
                39.99247222222222
              ],
              [
                116.3436,
                39.99247222222222
              ],
              [
                116.3449,
                39.99247222222222
              ],
              [
                116.3462,
                39.99247222222222
              ]
            ]
          ],
          [
            [
              [
                116.34246287262872,
                40.02163888888889
              ],
              [
                116.3436,
                40.02163888888889
              ],
              [
                116.3436,
                40.016777777777776
              ],
              [
                116.3423,
                40.016777777777776
              ],
              [
                116.3423,
                40.01829999999994
              ],
              [
                116.34246287262872,
                40.02163888888889
              ]
            ]
          ],
          [
            [
              [
                116.354,
                39.958444444444446
              ],
              [
                116.3527,
                39.958444444444446
              ],
              [
                116.3527,
                39.96330555555556
              ],
              [
                116.354,
                39.96330555555556
              ],
              [
                116.354,
                39.958444444444446
              ]
            ]
          ],
          [
            [
              [
                116.35423455098935,
                40.00705555555555
              ],
              [
                116.354,
                40.002774999999936
              ],
              [
                116.354,
                40.00705555555555
              ],
              [
                116.35423455098935,
                40.00705555555555
              ]
            ]
          ]
        ]
      }
    },
    {
      "type": "Feature",
      "id": "LU-007",
      "properties": {
        "id": "LU-007",
        "layer": "LAND_USE",
        "source_type": "agent_generated_design",
        "confidence": "medium",
        "geometry_role": "design_proposal",
        "land_use_code": "0805",
        "land_use_label_zh": "体育用地",
        "name_zh": "体育用地",
        "usage_note": "概念性用地分区，基于 provisional 边界生成；不构成法定用地分类结论。"
      },
      "geometry": {
        "type": "MultiPolygon",
        "coordinates": [
          [
            [
              [
                116.3514,
                40.011916666666664
              ],
              [
                116.3527,
                40.011916666666664
              ],
              [
                116.3527,
                40.00705555555555
              ],
              [
                116.3514,
                40.00705555555555
              ],
              [
                116.3514,
                40.011916666666664
              ]
            ]
          ],
          [
            [
              [
                116.354,
                40.016777777777776
              ],
              [
                116.354,
                40.011916666666664
              ],
              [
                116.3527,
                40.011916666666664
              ],
              [
                116.3527,
                40.016777777777776
              ],
              [
                116.354,
                40.016777777777776
              ]
            ]
          ],
          [
            [
              [
                116.3427,
                40.0265
              ],
              [
                116.3436,
                40.0265
              ],
              [
                116.3436,
                40.02163888888889
              ],
              [
                116.34246287262872,
                40.02163888888889
              ],
              [
                116.3427,
                40.0265
              ]
            ]
          ]
        ]
      }
    },
    {
      "type": "Feature",
      "id": "LU-008",
      "properties": {
        "id": "LU-008",
        "layer": "LAND_USE",
        "source_type": "agent_generated_design",
        "confidence": "medium",
        "geometry_role": "design_proposal",
        "land_use_code": "0806",
        "land_use_label_zh": "医疗卫生用地",
        "name_zh": "医疗卫生用地",
        "usage_note": "概念性用地分区，基于 provisional 边界生成；不构成法定用地分类结论。"
      },
      "geometry": {
        "type": "MultiPolygon",
        "coordinates": [
          [
            [
              [
                116.3436,
                39.939
              ],
              [
                116.3436,
                39.94386111111111
              ],
              [
                116.3449,
                39.94386111111111
              ],
              [
                116.3449,
                39.939
              ],
              [
                116.3436,
                39.939
              ]
            ]
          ],
          [
            [
              [
                116.3488,
                39.939
              ],
              [
                116.3488,
                39.94386111111111
              ],
              [
                116.3501,
                39.94386111111111
              ],
              [
                116.3501,
                39.939
              ],
              [
                116.3488,
                39.939
              ]
            ]
          ],
          [
            [
              [
                116.3553,
                39.94386111111111
              ],
              [
                116.3553,
                39.939
              ],
              [
                116.354,
                39.939
              ],
              [
                116.354,
                39.94386111111111
              ],
              [
                116.3553,
                39.94386111111111
              ]
            ]
          ],
          [
            [
              [
                116.3436,
                39.953583333333334
              ],
              [
                116.3423,
                39.953583333333334
              ],
              [
                116.3423,
                39.958444444444446
              ],
              [
                116.3436,
                39.958444444444446
              ],
              [
                116.3436,
                39.953583333333334
              ]
            ]
          ],
          [
            [
              [
                116.354,
                39.953583333333334
              ],
              [
                116.3527,
                39.953583333333334
              ],
              [
                116.3527,
                39.958444444444446
              ],
              [
                116.354,
                39.958444444444446
              ],
              [
                116.354,
                39.953583333333334
              ]
            ]
          ],
          [
            [
              [
                116.3423,
                39.96816666666667
              ],
              [
                116.341,
                39.96816666666667
              ],
              [
                116.341,
                39.97302777777778
              ],
              [
                116.3423,
                39.97302777777778
              ],
              [
                116.3423,
                39.96816666666667
              ]
            ]
          ],
          [
            [
              [
                116.34051362007168,
                39.98761111111111
              ],
              [
                116.341,
                39.98761111111111
              ],
              [
                116.341,
                39.982749999999996
              ],
              [
                116.3402,
                39.982749999999996
              ],
              [
                116.34051362007168,
                39.98761111111111
              ]
            ]
          ],
          [
            [
              [
                116.3436,
                40.011916666666664
              ],
              [
                116.3423,
                40.011916666666664
              ],
              [
                116.3423,
                40.016777777777776
              ],
              [
                116.3436,
                40.016777777777776
              ],
              [
                116.3436,
                40.011916666666664
              ]
            ]
          ]
        ]
      }
    },
    {
      "type": "Feature",
      "id": "LU-009",
      "properties": {
        "id": "LU-009",
        "layer": "LAND_USE",
        "source_type": "agent_generated_design",
        "confidence": "medium",
        "geometry_role": "design_proposal",
        "land_use_code": "1401",
        "land_use_label_zh": "公园绿地",
        "name_zh": "公园绿地",
        "usage_note": "概念性用地分区，基于 provisional 边界生成；不构成法定用地分类结论。"
      },
      "geometry": {
        "type": "MultiPolygon",
        "coordinates": [
          [
            [
              [
                116.3488,
                39.953583333333334
              ],
              [
                116.3501,
                39.953583333333334
              ],
              [
                116.3514,
                39.953583333333334
              ],
              [
                116.3527,
                39.953583333333334
              ],
              [
                116.3527,
                39.94872222222222
              ],
              [
                116.3514,
                39.94872222222222
              ],
              [
                116.3501,
                39.94872222222222
              ],
              [
                116.3488,
                39.94872222222222
              ],
              [
                116.3475,
                39.94872222222222
              ],
              [
                116.3462,
                39.94872222222222
              ],
              [
                116.3449,
                39.94872222222222
              ],
              [
                116.3436,
                39.94872222222222
              ],
              [
                116.3436,
                39.953583333333334
              ],
              [
                116.3449,
                39.953583333333334
              ],
              [
                116.3462,
                39.953583333333334
              ],
              [
                116.3475,
                39.953583333333334
              ],
              [
                116.3488,
                39.953583333333334
              ]
            ]
          ],
          [
            [
              [
                116.3449,
                39.958444444444446
              ],
              [
                116.3436,
                39.958444444444446
              ],
              [
                116.3436,
                39.96330555555556
              ],
              [
                116.3436,
                39.96816666666667
              ],
              [
                116.3449,
                39.96816666666667
              ],
              [
                116.3462,
                39.96816666666667
              ],
              [
                116.3475,
                39.96816666666667
              ],
              [
                116.3488,
                39.96816666666667
              ],
              [
                116.3501,
                39.96816666666667
              ],
              [
                116.3514,
                39.96816666666667
              ],
              [
                116.3527,
                39.96816666666667
              ],
              [
                116.3527,
                39.96330555555556
              ],
              [
                116.3527,
                39.958444444444446
              ],
              [
                116.3514,
                39.958444444444446
              ],
              [
                116.3501,
                39.958444444444446
              ],
              [
                116.3488,
                39.958444444444446
              ],
              [
                116.3475,
                39.958444444444446
              ],
              [
                116.3462,
                39.958444444444446
              ],
              [
                116.3449,
                39.958444444444446
              ]
            ]
          ],
          [
            [
              [
                116.3436,
                39.982749999999996
              ],
              [
                116.3449,
                39.982749999999996
              ],
              [
                116.3462,
                39.982749999999996
              ],
              [
                116.3475,
                39.982749999999996
              ],
              [
                116.3488,
                39.982749999999996
              ],
              [
                116.3501,
                39.982749999999996
              ],
              [
                116.3514,
                39.982749999999996
              ],
              [
                116.3527,
                39.982749999999996
              ],
              [
                116.3527,
                39.97788888888889
              ],
              [
                116.3527,
                39.97302777777778
              ],
              [
                116.3514,
                39.97302777777778
              ],
              [
                116.3501,
                39.97302777777778
              ],
              [
                116.3488,
                39.97302777777778
              ],
              [
                116.3475,
                39.97302777777778
              ],
              [
                116.3462,
                39.97302777777778
              ],
              [
                116.3449,
                39.97302777777778
              ],
              [
                116.3436,
                39.97302777777778
              ],
              [
                116.3436,
                39.97788888888889
              ],
              [
                116.3436,
                39.982749999999996
              ]
            ]
          ],
          [
            [
              [
                116.3449,
                39.99247222222222
              ],
              [
                116.3436,
                39.99247222222222
              ],
              [
                116.3436,
                39.99733333333333
              ],
              [
                116.3449,
                39.99733333333333
              ],
              [
                116.3462,
                39.99733333333333
              ],
              [
                116.3475,
                39.99733333333333
              ],
              [
                116.3488,
                39.99733333333333
              ],
              [
                116.3501,
                39.99733333333333
              ],
              [
                116.3514,
                39.99733333333333
              ],
              [
                116.3527,
                39.99733333333333
              ],
              [
                116.3527,
                39.99247222222222
              ],
              [
                116.3514,
                39.99247222222222
              ],
              [
                116.3501,
                39.99247222222222
              ],
              [
                116.3488,
                39.99247222222222
              ],
              [
                116.3475,
                39.99247222222222
              ],
              [
                116.3462,
                39.99247222222222
              ],
              [
                116.3449,
                39.99247222222222
              ]
            ]
          ],
          [
            [
              [
                116.3462,
                40.00705555555555
              ],
              [
                116.3475,
                40.00705555555555
              ],
              [
                116.3475,
                40.011916666666664
              ],
              [
                116.3488,
                40.011916666666664
              ],
              [
                116.3488,
                40.00705555555555
              ],
              [
                116.3501,
                40.00705555555555
              ],
              [
                116.3514,
                40.00705555555555
              ],
              [
                116.3527,
                40.00705555555555
              ],
              [
                116.3527,
                40.00219444444444
              ],
              [
                116.3514,
                40.00219444444444
              ],
              [
                116.3501,
                40.00219444444444
              ],
              [
                116.3488,
                40.00219444444444
              ],
              [
                116.3475,
                40.00219444444444
              ],
              [
                116.3462,
                40.00219444444444
              ],
              [
                116.3449,
                40.00219444444444
              ],
              [
                116.3436,
                40.00219444444444
              ],
              [
                116.3436,
                40.00705555555555
              ],
              [
                116.3449,
                40.00705555555555
              ],
              [
                116.3462,
                40.00705555555555
              ]
            ]
          ],
          [
            [
              [
                116.3449,
                40.02163888888889
              ],
              [
                116.3449,
                40.016777777777776
              ],
              [
                116.3436,
                40.016777777777776
              ],
              [
                116.3436,
                40.02163888888889
              ],
              [
                116.3449,
                40.02163888888889
              ]
            ]
          ],
          [
            [
              [
                116.3449,
                40.0265
              ],
              [
                116.3462,
                40.0265
              ],
              [
                116.3462,
                40.02163888888889
              ],
              [
                116.3449,
                40.02163888888889
              ],
              [
                116.3449,
                40.0265
              ]
            ]
          ],
          [
            [
              [
                116.3501,
                40.016777777777776
              ],
              [
                116.3501,
                40.011916666666664
              ],
              [
                116.3488,
                40.011916666666664
              ],
              [
                116.3488,
                40.016777777777776
              ],
              [
                116.3501,
                40.016777777777776
              ]
            ]
          ],
          [
            [
              [
                116.3514,
                40.02163888888889
              ],
              [
                116.3514,
                40.016777777777776
              ],
              [
                116.3501,
                40.016777777777776
              ],
              [
                116.3501,
                40.02163888888889
              ],
              [
                116.3514,
                40.02163888888889
              ]
            ]
          ],
          [
            [
              [
                116.3514,
                40.0265
              ],
              [
                116.3527,
                40.0265
              ],
              [
                116.3527,
                40.02163888888889
              ],
              [
                116.3514,
                40.02163888888889
              ],
              [
                116.3514,
                40.0265
              ]
            ]
          ]
        ]
      }
    },
    {
      "type": "Feature",
      "id": "LU-010",
      "properties": {
        "id": "LU-010",
        "layer": "LAND_USE",
        "source_type": "agent_generated_design",
        "confidence": "medium",
        "geometry_role": "design_proposal",
        "land_use_code": "1402",
        "land_use_label_zh": "防护绿地",
        "name_zh": "防护绿地",
        "usage_note": "概念性用地分区，基于 provisional 边界生成；不构成法定用地分类结论。"
      },
      "geometry": {
        "type": "MultiPolygon",
        "coordinates": [
          [
            [
              [
                116.3404299382716,
                39.94872222222222
              ],
              [
                116.341,
                39.94872222222222
              ],
              [
                116.341,
                39.94386111111111
              ],
              [
                116.3405649691358,
                39.94386111111111
              ],
              [
                116.3404299382716,
                39.94872222222222
              ]
            ]
          ],
          [
            [
              [
                116.3423,
                39.958444444444446
              ],
              [
                116.341,
                39.958444444444446
              ],
              [
                116.341,
                39.96330555555556
              ],
              [
                116.3423,
                39.96330555555556
              ],
              [
                116.3423,
                39.958444444444446
              ]
            ]
          ],
          [
            [
              [
                116.3397,
                39.975
              ],
              [
                116.33988637992832,
                39.97788888888889
              ],
              [
                116.341,
                39.97788888888889
              ],
              [
                116.341,
                39.97302777777778
              ],
              [
                116.33975478395061,
                39.97302777777778
              ],
              [
                116.3397,
                39.975
              ]
            ]
          ],
          [
            [
              [
                116.3423,
                39.97302777777778
              ],
              [
                116.3423,
                39.97788888888889
              ],
              [
                116.3436,
                39.97788888888889
              ],
              [
                116.3436,
                39.97302777777778
              ],
              [
                116.3423,
                39.97302777777778
              ]
            ]
          ],
          [
            [
              [
                116.341,
                39.98761111111111
              ],
              [
                116.341,
                39.99247222222222
              ],
              [
                116.3423,
                39.99247222222222
              ],
              [
                116.3423,
                39.98761111111111
              ],
              [
                116.341,
                39.98761111111111
              ]
            ]
          ],
          [
            [
              [
                116.3423,
                40.016777777777776
              ],
              [
                116.34222574525745,
                40.016777777777776
              ],
              [
                116.3423,
                40.01829999999994
              ],
              [
                116.3423,
                40.016777777777776
              ]
            ]
          ],
          [
            [
              [
                116.3553,
                39.958444444444446
              ],
              [
                116.354,
                39.958444444444446
              ],
              [
                116.354,
                39.96330555555556
              ],
              [
                116.3553,
                39.96330555555556
              ],
              [
                116.3553,
                39.958444444444446
              ]
            ]
          ],
          [
            [
              [
                116.3527,
                39.97302777777778
              ],
              [
                116.3527,
                39.97788888888889
              ],
              [
                116.354,
                39.97788888888889
              ],
              [
                116.354,
                39.97302777777778
              ],
              [
                116.3527,
                39.97302777777778
              ]
            ]
          ],
          [
            [
              [
                116.3436,
                40.00219444444444
              ],
              [
                116.3423,
                40.00219444444444
              ],
              [
                116.3423,
                40.00705555555555
              ],
              [
                116.3436,
                40.00705555555555
              ],
              [
                116.3436,
                40.00219444444444
              ]
            ]
          ],
          [
            [
              [
                116.35396818873669,
                40.00219444444444
              ],
              [
                116.3527,
                40.00219444444444
              ],
              [
                116.3527,
                40.00705555555555
              ],
              [
                116.354,
                40.00705555555555
              ],
              [
                116.354,
                40.002774999999936
              ],
              [
                116.35396818873669,
                40.00219444444444
              ]
            ]
          ],
          [
            [
              [
                116.354,
                40.016777777777776
              ],
              [
                116.354,
                40.02163888888889
              ],
              [
                116.35503363774734,
                40.02163888888889
              ],
              [
                116.35476727549468,
                40.016777777777776
              ],
              [
                116.354,
                40.016777777777776
              ]
            ]
          ]
        ]
      }
    },
    {
      "type": "Feature",
      "id": "LU-011",
      "properties": {
        "id": "LU-011",
        "layer": "LAND_USE",
        "source_type": "agent_generated_design",
        "confidence": "medium",
        "geometry_role": "design_proposal",
        "land_use_code": "1403",
        "land_use_label_zh": "广场用地",
        "name_zh": "广场用地",
        "usage_note": "概念性用地分区，基于 provisional 边界生成；不构成法定用地分类结论。"
      },
      "geometry": {
        "type": "MultiPolygon",
        "coordinates": [
          [
            [
              [
                116.3436,
                39.94386111111111
              ],
              [
                116.3436,
                39.94872222222222
              ],
              [
                116.3449,
                39.94872222222222
              ],
              [
                116.3449,
                39.94386111111111
              ],
              [
                116.3436,
                39.94386111111111
              ]
            ]
          ],
          [
            [
              [
                116.3475,
                39.958444444444446
              ],
              [
                116.3488,
                39.958444444444446
              ],
              [
                116.3501,
                39.958444444444446
              ],
              [
                116.3514,
                39.958444444444446
              ],
              [
                116.3527,
                39.958444444444446
              ],
              [
                116.3527,
                39.953583333333334
              ],
              [
                116.3514,
                39.953583333333334
              ],
              [
                116.3501,
                39.953583333333334
              ],
              [
                116.3488,
                39.953583333333334
              ],
              [
                116.3475,
                39.953583333333334
              ],
              [
                116.3462,
                39.953583333333334
              ],
              [
                116.3449,
                39.953583333333334
              ],
              [
                116.3436,
                39.953583333333334
              ],
              [
                116.3436,
                39.958444444444446
              ],
              [
                116.3449,
                39.958444444444446
              ],
              [
                116.3462,
                39.958444444444446
              ],
              [
                116.3475,
                39.958444444444446
              ]
            ]
          ],
          [
            [
              [
                116.3475,
                39.97302777777778
              ],
              [
                116.3488,
                39.97302777777778
              ],
              [
                116.3501,
                39.97302777777778
              ],
              [
                116.3514,
                39.97302777777778
              ],
              [
                116.3527,
                39.97302777777778
              ],
              [
                116.3527,
                39.96816666666667
              ],
              [
                116.3514,
                39.96816666666667
              ],
              [
                116.3501,
                39.96816666666667
              ],
              [
                116.3488,
                39.96816666666667
              ],
              [
                116.3475,
                39.96816666666667
              ],
              [
                116.3462,
                39.96816666666667
              ],
              [
                116.3449,
                39.96816666666667
              ],
              [
                116.3436,
                39.96816666666667
              ],
              [
                116.3436,
                39.97302777777778
              ],
              [
                116.3449,
                39.97302777777778
              ],
              [
                116.3462,
                39.97302777777778
              ],
              [
                116.3475,
                39.97302777777778
              ]
            ]
          ],
          [
            [
              [
                116.3449,
                39.99733333333333
              ],
              [
                116.3436,
                39.99733333333333
              ],
              [
                116.3436,
                40.00219444444444
              ],
              [
                116.3449,
                40.00219444444444
              ],
              [
                116.3462,
                40.00219444444444
              ],
              [
                116.3475,
                40.00219444444444
              ],
              [
                116.3488,
                40.00219444444444
              ],
              [
                116.3501,
                40.00219444444444
              ],
              [
                116.3514,
                40.00219444444444
              ],
              [
                116.3527,
                40.00219444444444
              ],
              [
                116.3527,
                39.99733333333333
              ],
              [
                116.3514,
                39.99733333333333
              ],
              [
                116.3501,
                39.99733333333333
              ],
              [
                116.3488,
                39.99733333333333
              ],
              [
                116.3475,
                39.99733333333333
              ],
              [
                116.3462,
                39.99733333333333
              ],
              [
                116.3449,
                39.99733333333333
              ]
            ]
          ],
          [
            [
              [
                116.3501,
                39.94872222222222
              ],
              [
                116.3514,
                39.94872222222222
              ],
              [
                116.3514,
                39.94386111111111
              ],
              [
                116.3501,
                39.94386111111111
              ],
              [
                116.3501,
                39.94872222222222
              ]
            ]
          ]
        ]
      }
    },
    {
      "type": "Feature",
      "id": "LU-012",
      "properties": {
        "id": "LU-012",
        "layer": "LAND_USE",
        "source_type": "agent_generated_design",
        "confidence": "medium",
        "geometry_role": "design_proposal",
        "land_use_code": "16",
        "land_use_label_zh": "留白用地",
        "name_zh": "留白用地",
        "usage_note": "概念性用地分区，基于 provisional 边界生成；不构成法定用地分类结论。"
      },
      "geometry": {
        "type": "MultiPolygon",
        "coordinates": [
          [
            [
              [
                116.3423,
                39.939
              ],
              [
                116.3423,
                39.94386111111111
              ],
              [
                116.3436,
                39.94386111111111
              ],
              [
                116.3436,
                39.939
              ],
              [
                116.3423,
                39.939
              ]
            ]
          ],
          [
            [
              [
                116.3475,
                39.939
              ],
              [
                116.3475,
                39.94386111111111
              ],
              [
                116.3488,
                39.94386111111111
              ],
              [
                116.3488,
                39.939
              ],
              [
                116.3475,
                39.939
              ]
            ]
          ],
          [
            [
              [
                116.3527,
                39.939
              ],
              [
                116.3527,
                39.94386111111111
              ],
              [
                116.354,
                39.94386111111111
              ],
              [
                116.354,
                39.939
              ],
              [
                116.3527,
                39.939
              ]
            ]
          ],
          [
            [
              [
                116.3423,
                39.953583333333334
              ],
              [
                116.341,
                39.953583333333334
              ],
              [
                116.341,
                39.958444444444446
              ],
              [
                116.3423,
                39.958444444444446
              ],
              [
                116.3423,
                39.953583333333334
              ]
            ]
          ],
          [
            [
              [
                116.33975478395061,
                39.97302777777778
              ],
              [
                116.341,
                39.97302777777778
              ],
              [
                116.341,
                39.96816666666667
              ],
              [
                116.33988981481481,
                39.96816666666667
              ],
              [
                116.33975478395061,
                39.97302777777778
              ]
            ]
          ],
          [
            [
              [
                116.3436,
                39.99733333333333
              ],
              [
                116.3423,
                39.99733333333333
              ],
              [
                116.3423,
                40.00219444444444
              ],
              [
                116.3436,
                40.00219444444444
              ],
              [
                116.3436,
                39.99733333333333
              ]
            ]
          ],
          [
            [
              [
                116.35370182648403,
                39.99733333333333
              ],
              [
                116.3527,
                39.99733333333333
              ],
              [
                116.3527,
                40.00219444444444
              ],
              [
                116.35396818873669,
                40.00219444444444
              ],
              [
                116.35370182648403,
                39.99733333333333
              ]
            ]
          ],
          [
            [
              [
                116.34222574525745,
                40.016777777777776
              ],
              [
                116.3423,
                40.016777777777776
              ],
              [
                116.3423,
                40.011916666666664
              ],
              [
                116.34198861788617,
                40.011916666666664
              ],
              [
                116.34222574525745,
                40.016777777777776
              ]
            ]
          ]
        ]
      }
    }
  ]
}