{
  "type": "FeatureCollection",
  "name": "phasing_conceptual",
  "features": [
    {
      "type": "Feature",
      "id": "PHASE-001",
      "properties": {
        "id": "PHASE-001",
        "layer": "PHASE",
        "source_type": "agent_generated_design",
        "confidence": "medium",
        "geometry_role": "design_proposal",
        "phase_code": "001",
        "phase_label_zh": "近期试点（南段）",
        "phase_years": [
          2026,
          2028
        ],
        "iteration": "v1.7",
        "usage_note": "概念性分期范围，供专业团队深化；不代表政府开发时序。"
      },
      "geometry": {
        "type": "Polygon",
        "coordinates": [
          [
            [
              116.3553,
              39.939
            ],
            [
              116.3407,
              39.939
            ],
            [
              116.34011666666666,
              39.96
            ],
            [
              116.3553,
              39.96
            ],
            [
              116.3553,
              39.939
            ]
          ]
        ]
      }
    },
    {
      "type": "Feature",
      "id": "PHASE-002",
      "properties": {
        "id": "PHASE-002",
        "layer": "PHASE",
        "source_type": "agent_generated_design",
        "confidence": "medium",
        "geometry_role": "design_proposal",
        "phase_code": "002",
        "phase_label_zh": "中期更新（中段）",
        "phase_years": [
          2028,
          2031
        ],
        "iteration": "v1.7",
        "usage_note": "概念性分期范围，供专业团队深化；不代表政府开发时序。"
      },
      "geometry": {
        "type": "Polygon",
        "coordinates": [
          [
            [
              116.3553,
              39.96
            ],
            [
              116.34011666666666,
              39.96
            ],
            [
              116.3397,
              39.975
            ],
            [
              116.34131290322581,
              40.0
            ],
            [
              116.35384794520549,
              40.0
            ],
            [
              116.3533,
              39.99
            ],
            [
              116.3553,
              39.965
            ],
            [
              116.3553,
              39.96
            ]
          ]
        ]
      }
    },
    {
      "type": "Feature",
      "id": "PHASE-003",
      "properties": {
        "id": "PHASE-003",
        "layer": "PHASE",
        "source_type": "agent_generated_design",
        "confidence": "medium",
        "geometry_role": "design_proposal",
        "phase_code": "003",
        "phase_label_zh": "远期体系（北段）",
        "phase_years": [
          2031,
          2035
        ],
        "iteration": "v1.7",
        "usage_note": "概念性分期范围，供专业团队深化；不代表政府开发时序。"
      },
      "geometry": {
        "type": "Polygon",
        "coordinates": [
          [
            [
              116.3553,
              40.0265
            ],
            [
              116.35384794520549,
              40.0
            ],
            [
              116.34131290322581,
              40.0
            ],
            [
              116.3417,
              40.006
            ],
            [
              116.3427,
              40.0265
            ],
            [
              116.3553,
              40.0265
            ]
          ]
        ]
      }
    }
  ]
}