{
  "type": "FeatureCollection",
  "name": "public_space_conceptual",
  "features": [
    {
      "type": "Feature",
      "id": "PUBLIC-001",
      "properties": {
        "id": "PUBLIC-001",
        "layer": "PUBLIC_SPACE",
        "source_type": "agent_generated_design",
        "confidence": "medium",
        "geometry_role": "design_proposal",
        "public_space_type": "promenade",
        "name_zh": "零公里步行公共空间"
      },
      "geometry": {
        "type": "Polygon",
        "coordinates": [
          [
            [
              116.3449,
              39.94386111111111
            ],
            [
              116.3436,
              39.94386111111111
            ],
            [
              116.3436,
              39.94872222222222
            ],
            [
              116.3449,
              39.94872222222222
            ],
            [
              116.3449,
              39.94386111111111
            ]
          ]
        ]
      }
    },
    {
      "type": "Feature",
      "id": "PUBLIC-002",
      "properties": {
        "id": "PUBLIC-002",
        "layer": "PUBLIC_SPACE",
        "source_type": "agent_generated_design",
        "confidence": "medium",
        "geometry_role": "design_proposal",
        "public_space_type": "plaza",
        "name_zh": "广场"
      },
      "geometry": {
        "type": "Polygon",
        "coordinates": [
          [
            [
              116.3527,
              39.958444444444446
            ],
            [
              116.3527,
              39.953583333333334
            ],
            [
              116.3514,
              39.953583333333334
            ],
            [
              116.3501,
              39.953583333333334
            ],
            [
              116.34993980516006,
              39.953583333333334
            ],
            [
              116.3488,
              39.953583333333334
            ],
            [
              116.3475,
              39.953583333333334
            ],
            [
              116.34673888073738,
              39.953583333333334
            ],
            [
              116.3462,
              39.953583333333334
            ],
            [
              116.3449,
              39.953583333333334
            ],
            [
              116.3436,
              39.953583333333334
            ],
            [
              116.3436,
              39.958444444444446
            ],
            [
              116.3449,
              39.958444444444446
            ],
            [
              116.3462,
              39.958444444444446
            ],
            [
              116.34662202710489,
              39.958444444444446
            ],
            [
              116.3475,
              39.958444444444446
            ],
            [
              116.3488,
              39.958444444444446
            ],
            [
              116.34982295152759,
              39.958444444444446
            ],
            [
              116.3501,
              39.958444444444446
            ],
            [
              116.3514,
              39.958444444444446
            ],
            [
              116.3527,
              39.958444444444446
            ]
          ]
        ]
      }
    },
    {
      "type": "Feature",
      "id": "PUBLIC-003",
      "properties": {
        "id": "PUBLIC-003",
        "layer": "PUBLIC_SPACE",
        "source_type": "agent_generated_design",
        "confidence": "medium",
        "geometry_role": "design_proposal",
        "public_space_type": "promenade",
        "name_zh": "零公里步行公共空间"
      },
      "geometry": {
        "type": "Polygon",
        "coordinates": [
          [
            [
              116.3462,
              39.96816666666667
            ],
            [
              116.3449,
              39.96816666666667
            ],
            [
              116.3436,
              39.96816666666667
            ],
            [
              116.3436,
              39.97302777777778
            ],
            [
              116.3449,
              39.97302777777778
            ],
            [
              116.3462,
              39.97302777777778
            ],
            [
              116.34627146620745,
              39.97302777777778
            ],
            [
              116.3475,
              39.97302777777778
            ],
            [
              116.3488,
              39.97302777777778
            ],
            [
              116.34947239063015,
              39.97302777777778
            ],
            [
              116.3501,
              39.97302777777778
            ],
            [
              116.3514,
              39.97302777777778
            ],
            [
              116.3527,
              39.97302777777778
            ],
            [
              116.3527,
              39.96816666666667
            ],
            [
              116.3514,
              39.96816666666667
            ],
            [
              116.3501,
              39.96816666666667
            ],
            [
              116.34958924426263,
              39.96816666666667
            ],
            [
              116.3488,
              39.96816666666667
            ],
            [
              116.3475,
              39.96816666666667
            ],
            [
              116.34638831983993,
              39.96816666666667
            ],
            [
              116.3462,
              39.96816666666667
            ]
          ]
        ]
      }
    },
    {
      "type": "Feature",
      "id": "PUBLIC-004",
      "properties": {
        "id": "PUBLIC-004",
        "layer": "PUBLIC_SPACE",
        "source_type": "agent_generated_design",
        "confidence": "medium",
        "geometry_role": "design_proposal",
        "public_space_type": "plaza",
        "name_zh": "广场"
      },
      "geometry": {
        "type": "Polygon",
        "coordinates": [
          [
            [
              116.34924135978639,
              39.99247222222222
            ],
            [
              116.34910067936659,
              39.98849096634192
            ],
            [
              116.34923868336519,
              39.982749999999996
            ],
            [
              116.3488,
              39.982749999999996
            ],
            [
              116.3475,
              39.982749999999996
            ],
            [
              116.3462,
              39.982749999999996
            ],
            [
              116.3460377589425,
              39.982749999999996
            ],
            [
              116.34590046207785,
              39.98846154956918
            ],
            [
              116.34590099795429,
              39.98855650183907
            ],
            [
              116.34603936263214,
              39.99247222222222
            ],
            [
              116.3462,
              39.99247222222222
            ],
            [
              116.3475,
              39.99247222222222
            ],
            [
              116.3488,
              39.99247222222222
            ],
            [
              116.34924135978639,
              39.99247222222222
            ]
          ]
        ]
      }
    },
    {
      "type": "Feature",
      "id": "PUBLIC-005",
      "properties": {
        "id": "PUBLIC-005",
        "layer": "PUBLIC_SPACE",
        "source_type": "agent_generated_design",
        "confidence": "medium",
        "geometry_role": "design_proposal",
        "public_space_type": "promenade",
        "name_zh": "零公里步行公共空间"
      },
      "geometry": {
        "type": "Polygon",
        "coordinates": [
          [
            [
              116.3488,
              39.99733333333333
            ],
            [
              116.3475,
              39.99733333333333
            ],
            [
              116.34621113334278,
              39.99733333333333
            ],
            [
              116.3462,
              39.99733333333333
            ],
            [
              116.3449,
              39.99733333333333
            ],
            [
              116.3436,
              39.99733333333333
            ],
            [
              116.3436,
              40.00219444444444
            ],
            [
              116.3449,
              40.00219444444444
            ],
            [
              116.3462,
              40.00219444444444
            ],
            [
              116.34638290405341,
              40.00219444444444
            ],
            [
              116.3475,
              40.00219444444444
            ],
            [
              116.3488,
              40.00219444444444
            ],
            [
              116.34958490120766,
              40.00219444444444
            ],
            [
              116.3501,
              40.00219444444444
            ],
            [
              116.3514,
              40.00219444444444
            ],
            [
              116.3527,
              40.00219444444444
            ],
            [
              116.3527,
              39.99733333333333
            ],
            [
              116.3514,
              39.99733333333333
            ],
            [
              116.3501,
              39.99733333333333
            ],
            [
              116.34941313049703,
              39.99733333333333
            ],
            [
              116.3488,
              39.99733333333333
            ]
          ]
        ]
      }
    },
    {
      "type": "Feature",
      "id": "PUBLIC-006",
      "properties": {
        "id": "PUBLIC-006",
        "layer": "PUBLIC_SPACE",
        "source_type": "agent_generated_design",
        "confidence": "medium",
        "geometry_role": "design_proposal",
        "public_space_type": "plaza",
        "name_zh": "广场"
      },
      "geometry": {
        "type": "Polygon",
        "coordinates": [
          [
            [
              116.3501,
              39.94386111111111
            ],
            [
              116.3501,
              39.94872222222222
            ],
            [
              116.3514,
              39.94872222222222
            ],
            [
              116.3514,
              39.94386111111111
            ],
            [
              116.3501,
              39.94386111111111
            ]
          ]
        ]
      }
    },
    {
      "type": "Feature",
      "id": "PUBLIC-007",
      "properties": {
        "id": "PUBLIC-007",
        "layer": "PUBLIC_SPACE",
        "source_type": "agent_generated_design",
        "confidence": "medium",
        "geometry_role": "design_proposal",
        "public_space_type": "promenade",
        "name_zh": "零公里步行公共空间"
      },
      "geometry": {
        "type": "Polygon",
        "coordinates": [
          [
            [
              116.34999249469058,
              39.94632340690381
            ],
            [
              116.3499287919143,
              39.946179893295636
            ],
            [
              116.3498513290908,
              39.94604331470868
            ],
            [
              116.34976085222945,
              39.94591498646939
            ],
            [
              116.34965823267189,
              39.94579614444886
            ],
            [
              116.34954445870054,
              39.94568793316072
            ],
            [
              116.34942062602094,
              39.94559139473883
            ],
            [
              116.34928792720949,
              39.94550745890095
            ],
            [
              116.3491476402283,
              39.9454369339951
            ],
            [
              116.34900111611766,
              39.94538049921467
            ],
            [
              116.34884976598488,
              39.94533869805745
            ],
            [
              116.34869504741447,
              39.945311933091425
            ],
            [
              116.34853845043082,
              39.94530046207786
            ],
            [
              116.34838148314851,
              39.945304395488876
            ],
            [
              116.34822565724826,
              39.945323695443584
            ],
            [
              116.3480724734187,
              39.945358176072865
            ],
            [
              116.3479234069038,
              39.94540750530941
            ],
            [
              116.34777989329564,
              39.94547120808571
            ],
            [
              116.34764331470868,
              39.945548670909204
            ],
            [
              116.34751498646939,
              39.94563914777055
            ],
            [
              116.34739614444887,
              39.945741767328116
            ],
            [
              116.34728793316071,
              39.945855541299466
            ],
            [
              116.34719139473883,
              39.945979373979064
            ],
            [
              116.34710745890095,
              39.946112072790505
            ],
            [
              116.3470369339951,
              39.946252359771705
            ],
            [
              116.34698049921467,
              39.94639888388234
            ],
            [
              116.34693869805744,
              39.94655023401512
            ],
            [
              116.34691193309142,
              39.946704952585534
            ],
            [
              116.34690046207785,
              39.94686154956918
            ],
            [
              116.34685573436985,
              39.94872222222222
            ],
            [
              116.3475,
              39.94872222222222
            ],
            [
              116.3488,
              39.94872222222222
            ],
            [
              116.35005665879255,
              39.94872222222222
            ],
            [
              116.35009953792215,
              39.94693845043082
            ],
            [
              116.35009560451113,
              39.94678148314851
            ],
            [
              116.35007630455641,
              39.94662565724827
            ],
            [
              116.35004182392713,
              39.946472473418694
            ],
            [
              116.34999249469058,
              39.94632340690381
            ]
          ]
        ]
      }
    },
    {
      "type": "Feature",
      "id": "PUBLIC-008",
      "properties": {
        "id": "PUBLIC-008",
        "layer": "PUBLIC_SPACE",
        "source_type": "agent_generated_design",
        "confidence": "medium",
        "geometry_role": "design_proposal",
        "public_space_type": "plaza",
        "name_zh": "广场"
      },
      "geometry": {
        "type": "Polygon",
        "coordinates": [
          [
            [
              116.34975667191831,
              40.00705555555555
            ],
            [
              116.3488,
              40.00705555555555
            ],
            [
              116.3488,
              40.011916666666664
            ],
            [
              116.34992844262895,
              40.011916666666664
            ],
            [
              116.34975667191831,
              40.00705555555555
            ]
          ]
        ]
      }
    },
    {
      "type": "Feature",
      "id": "PUBLIC-009",
      "properties": {
        "id": "PUBLIC-009",
        "layer": "PUBLIC_SPACE",
        "source_type": "agent_generated_design",
        "confidence": "medium",
        "geometry_role": "design_proposal",
        "public_space_type": "promenade",
        "name_zh": "零公里步行公共空间"
      },
      "geometry": {
        "type": "Polygon",
        "coordinates": [
          [
            [
              116.34704433705524,
              40.01746411248388
            ],
            [
              116.34711644087672,
              40.01760359451988
            ],
            [
              116.34720186912888,
              40.017735337501364
            ],
            [
              116.34729979909098,
              40.0178580726714
            ],
            [
              116.34740928764391,
              40.01797061802321
            ],
            [
              116.34752928035307,
              40.01807188968353
            ],
            [
              116.3476586216231,
              40.01816091235092
            ],
            [
              116.34779606582683,
              40.018236828688416
            ],
            [
              116.34794028930146,
              40.01829890758019
            ],
            [
              116.34808990309608,
              40.01834655117258
            ],
            [
              116.34824346634808,
              40.01837930063175
            ],
            [
              116.34839950015937,
              40.0183968405625
            ],
            [
              116.34855650183907,
              40.01839900204571
            ],
            [
              116.34871295937518,
              40.01838576426512
            ],
            [
              116.34886736599609,
              40.01835725470779
            ],
            [
              116.34901823468162,
              40.01831374793634
            ],
            [
              116.34916411248388,
              40.01825566294477
            ],
            [
              116.34930359451988,
              40.01818355912329
            ],
            [
              116.34943533750136,
              40.018098130871124
            ],
            [
              116.3495580726714,
              40.018000200909036
            ],
            [
              116.34967061802321,
              40.0178907123561
            ],
            [
              116.34977188968354,
              40.017770719646926
            ],
            [
              116.34986091235092,
              40.01764137837691
            ],
            [
              116.34993682868841,
              40.01750393417318
            ],
            [
              116.34999890758019,
              40.01735971069855
            ],
            [
              116.35004655117258,
              40.01721009690392
            ],
            [
              116.35007930063175,
              40.01705653365193
            ],
            [
              116.3500968405625,
              40.01690049984063
            ],
            [
              116.35009853010925,
              40.016777777777776
            ],
            [
              116.3488,
              40.016777777777776
            ],
            [
              116.3488,
              40.011916666666664
            ],
            [
              116.3475,
              40.011916666666664
            ],
            [
              116.3475,
              40.00705555555555
            ],
            [
              116.34655467476406,
              40.00705555555555
            ],
            [
              116.3469009979543,
              40.01685650183907
            ],
            [
              116.34691423573489,
              40.01701295937518
            ],
            [
              116.34694274529221,
              40.01716736599608
            ],
            [
              116.34698625206366,
              40.017318234681625
            ],
            [
              116.34704433705524,
              40.01746411248388
            ]
          ]
        ]
      }
    }
  ]
}