{
  "type": "FeatureCollection",
  "name": "roads_conceptual",
  "features": [
    {
      "type": "Feature",
      "id": "ROAD-001",
      "properties": {
        "id": "ROAD-001",
        "layer": "ROAD_CENTERLINE",
        "source_type": "agent_generated_design",
        "confidence": "low",
        "geometry_role": "design_proposal",
        "road_class": "greenway",
        "name_zh": "零公里文化慢行主轴",
        "usage_note": "概念性道路中心线，不代表道路红线或工程线位。"
      },
      "geometry": {
        "type": "LineString",
        "coordinates": [
          [
            116.3485,
            39.9469
          ],
          [
            116.3475,
            39.9885
          ],
          [
            116.3485,
            40.0168
          ]
        ]
      }
    },
    {
      "type": "Feature",
      "id": "ROAD-002",
      "properties": {
        "id": "ROAD-002",
        "layer": "ROAD_CENTERLINE",
        "source_type": "agent_generated_design",
        "confidence": "low",
        "geometry_role": "design_proposal",
        "road_class": "secondary",
        "name_zh": "横向联系路",
        "usage_note": "概念性道路中心线，不代表道路红线或工程线位。"
      },
      "geometry": {
        "type": "LineString",
        "coordinates": [
          [
            116.34051944444444,
            39.9455
          ],
          [
            116.3545,
            39.9455
          ]
        ]
      }
    },
    {
      "type": "Feature",
      "id": "ROAD-003",
      "properties": {
        "id": "ROAD-003",
        "layer": "ROAD_CENTERLINE",
        "source_type": "agent_generated_design",
        "confidence": "low",
        "geometry_role": "design_proposal",
        "road_class": "secondary",
        "name_zh": "横向联系路",
        "usage_note": "概念性道路中心线，不代表道路红线或工程线位。"
      },
      "geometry": {
        "type": "LineString",
        "coordinates": [
          [
            116.34049999999999,
            39.966
          ],
          [
            116.3545,
            39.966
          ]
        ]
      }
    },
    {
      "type": "Feature",
      "id": "ROAD-004",
      "properties": {
        "id": "ROAD-004",
        "layer": "ROAD_CENTERLINE",
        "source_type": "agent_generated_design",
        "confidence": "low",
        "geometry_role": "design_proposal",
        "road_class": "secondary",
        "name_zh": "横向联系路",
        "usage_note": "概念性道路中心线，不代表道路红线或工程线位。"
      },
      "geometry": {
        "type": "LineString",
        "coordinates": [
          [
            116.3407,
            39.9905
          ],
          [
            116.35332739726027,
            39.9905
          ]
        ]
      }
    },
    {
      "type": "Feature",
      "id": "ROAD-005",
      "properties": {
        "id": "ROAD-005",
        "layer": "ROAD_CENTERLINE",
        "source_type": "agent_generated_design",
        "confidence": "low",
        "geometry_role": "design_proposal",
        "road_class": "secondary",
        "name_zh": "横向联系路",
        "usage_note": "概念性道路中心线，不代表道路红线或工程线位。"
      },
      "geometry": {
        "type": "LineString",
        "coordinates": [
          [
            116.34182195121952,
            40.0085
          ],
          [
            116.35431369863014,
            40.0085
          ]
        ]
      }
    },
    {
      "type": "Feature",
      "id": "ROAD-006",
      "properties": {
        "id": "ROAD-006",
        "layer": "ROAD_CENTERLINE",
        "source_type": "agent_generated_design",
        "confidence": "low",
        "geometry_role": "design_proposal",
        "road_class": "secondary",
        "name_zh": "横向联系路",
        "usage_note": "概念性道路中心线，不代表道路红线或工程线位。"
      },
      "geometry": {
        "type": "LineString",
        "coordinates": [
          [
            116.34252926829268,
            40.023
          ],
          [
            116.3545,
            40.023
          ]
        ]
      }
    },
    {
      "type": "Feature",
      "id": "ROAD-007",
      "properties": {
        "id": "ROAD-007",
        "layer": "ROAD_CENTERLINE",
        "source_type": "agent_generated_design",
        "confidence": "low",
        "geometry_role": "design_proposal",
        "road_class": "branch",
        "name_zh": "纵向支路",
        "usage_note": "概念性道路中心线，不代表道路红线或工程线位。"
      },
      "geometry": {
        "type": "LineString",
        "coordinates": [
          [
            116.3438,
            39.9398
          ],
          [
            116.3438,
            40.0257
          ]
        ]
      }
    },
    {
      "type": "Feature",
      "id": "ROAD-008",
      "properties": {
        "id": "ROAD-008",
        "layer": "ROAD_CENTERLINE",
        "source_type": "agent_generated_design",
        "confidence": "low",
        "geometry_role": "design_proposal",
        "road_class": "branch",
        "name_zh": "纵向支路",
        "usage_note": "概念性道路中心线，不代表道路红线或工程线位。"
      },
      "geometry": {
        "type": "LineString",
        "coordinates": [
          [
            116.3498,
            39.9398
          ],
          [
            116.3498,
            40.0257
          ]
        ]
      }
    },
    {
      "type": "Feature",
      "id": "ROAD-009",
      "properties": {
        "id": "ROAD-009",
        "layer": "ROAD_CENTERLINE",
        "source_type": "agent_generated_design",
        "confidence": "low",
        "geometry_role": "design_proposal",
        "road_class": "branch",
        "name_zh": "纵向支路",
        "usage_note": "概念性道路中心线，不代表道路红线或工程线位。"
      },
      "geometry": {
        "type": "MultiLineString",
        "coordinates": [
          [
            [
              116.3538,
              39.9398
            ],
            [
              116.3538,
              39.98374999999996
            ]
          ],
          [
            [
              116.3538,
              39.99912500000006
            ],
            [
              116.3538,
              40.0257
            ]
          ]
        ]
      }
    },
    {
      "type": "Feature",
      "id": "ROAD-010",
      "properties": {
        "id": "ROAD-010",
        "layer": "ROAD_CENTERLINE",
        "source_type": "agent_generated_design",
        "confidence": "low",
        "geometry_role": "design_proposal",
        "road_class": "transit_connection",
        "name_zh": "轨道接驳联络线",
        "usage_note": "概念性道路中心线，不代表道路红线或工程线位。"
      },
      "geometry": {
        "type": "LineString",
        "coordinates": [
          [
            116.3485,
            40.0168
          ],
          [
            116.3482,
            40.017
          ]
        ]
      }
    },
    {
      "type": "Feature",
      "id": "ROAD-011",
      "properties": {
        "id": "ROAD-011",
        "layer": "ROAD_CENTERLINE",
        "source_type": "agent_generated_design",
        "confidence": "low",
        "geometry_role": "design_proposal",
        "road_class": "transit_connection",
        "name_zh": "轨道接驳联络线",
        "usage_note": "概念性道路中心线，不代表道路红线或工程线位。"
      },
      "geometry": {
        "type": "LineString",
        "coordinates": [
          [
            116.34751160802975,
            39.98801710596225
          ],
          [
            116.3468,
            39.988
          ]
        ]
      }
    },
    {
      "type": "Feature",
      "id": "ROAD-012",
      "properties": {
        "id": "ROAD-012",
        "layer": "ROAD_CENTERLINE",
        "source_type": "agent_generated_design",
        "confidence": "low",
        "geometry_role": "design_proposal",
        "road_class": "transit_connection",
        "name_zh": "轨道接驳联络线",
        "usage_note": "概念性道路中心线，不代表道路红线或工程线位。"
      },
      "geometry": {
        "type": "LineString",
        "coordinates": [
          [
            116.34849777079627,
            39.94699273487491
          ],
          [
            116.3488,
            39.947
          ]
        ]
      }
    }
  ]
}